{
    "links": {
        "self": "http://www.neowsapp.com/rest/v1/neo/3578914?api_key=iIulBulltgU6a56xZRHN4H3l9WmuAYTsLGpBGhQ2"
    },
    "id": "3578914",
    "neo_reference_id": "3578914",
    "name": "(2011 SD25)",
    "designation": "2011 SD25",
    "nasa_jpl_url": "http://ssd.jpl.nasa.gov/sbdb.cgi?sstr=3578914",
    "absolute_magnitude_h": 21.6,
    "estimated_diameter": {
        "kilometers": {
            "estimated_diameter_min": 0.1272198785,
            "estimated_diameter_max": 0.2844722965
        },
        "meters": {
            "estimated_diameter_min": 127.2198785394,
            "estimated_diameter_max": 284.4722965033
        },
        "miles": {
            "estimated_diameter_min": 0.0790507431,
            "estimated_diameter_max": 0.1767628354
        },
        "feet": {
            "estimated_diameter_min": 417.3880663071,
            "estimated_diameter_max": 933.3080892598
        }
    },
    "is_potentially_hazardous_asteroid": false,
    "close_approach_data": [
        {
            "close_approach_date": "1995-05-25",
            "close_approach_date_full": "1995-May-25 11:48",
            "epoch_date_close_approach": 801402480000,
            "relative_velocity": {
                "kilometers_per_second": "11.4064613779",
                "kilometers_per_hour": "41063.2609603568",
                "miles_per_hour": "25515.1134561728"
            },
            "miss_distance": {
                "astronomical": "0.089269485",
                "lunar": "34.725829665",
                "kilometers": "13354524.81199695",
                "miles": "8298116.92937991"
            },
            "orbiting_body": "Mars"
        },
        {
            "close_approach_date": "1998-02-23",
            "close_approach_date_full": "1998-Feb-23 11:57",
            "epoch_date_close_approach": 888235020000,
            "relative_velocity": {
                "kilometers_per_second": "13.8554698203",
                "kilometers_per_hour": "49879.6913529122",
                "miles_per_hour": "30993.3004409248"
            },
            "miss_distance": {
                "astronomical": "0.0681520992",
                "lunar": "26.5111665888",
                "kilometers": "10195408.876348704",
                "miles": "6335133.3117279552"
            },
            "orbiting_body": "Mars"
        },
        {
            "close_approach_date": "2009-09-14",
            "close_approach_date_full": "2009-Sep-14 13:40",
            "epoch_date_close_approach": 1252935600000,
            "relative_velocity": {
                "kilometers_per_second": "15.494112164",
                "kilometers_per_hour": "55778.8037905339",
                "miles_per_hour": "34658.7794997348"
            },
            "miss_distance": {
                "astronomical": "0.3925415439",
                "lunar": "152.6986605771",
                "kilometers": "58723378.853951493",
                "miles": "36489015.6017088834"
            },
            "orbiting_body": "Earth"
        },
        {
            "close_approach_date": "2011-09-21",
            "close_approach_date_full": "2011-Sep-21 11:47",
            "epoch_date_close_approach": 1316605620000,
            "relative_velocity": {
                "kilometers_per_second": "14.3866842292",
                "kilometers_per_hour": "51792.063224949",
                "miles_per_hour": "32181.5739521912"
            },
            "miss_distance": {
                "astronomical": "0.3316022803",
                "lunar": "128.9932870367",
                "kilometers": "49606994.820022961",
                "miles": "30824357.2367244218"
            },
            "orbiting_body": "Earth"
        },
        {
            "close_approach_date": "2013-09-30",
            "close_approach_date_full": "2013-Sep-30 01:16",
            "epoch_date_close_approach": 1380503760000,
            "relative_velocity": {
                "kilometers_per_second": "14.2749540337",
                "kilometers_per_hour": "51389.8345212728",
                "miles_per_hour": "31931.6446779542"
            },
            "miss_distance": {
                "astronomical": "0.469219585",
                "lunar": "182.526418565",
                "kilometers": "70194250.47828395",
                "miles": "43616684.71466051"
            },
            "orbiting_body": "Earth"
        }
    ],
    "orbital_data": {
        "orbit_id": "10",
        "orbit_determination_date": "2020-07-07 05:53:55",
        "first_observation_date": "2011-09-19",
        "last_observation_date": "2011-10-16",
        "data_arc_in_days": 27,
        "observations_used": 41,
        "orbit_uncertainty": "7",
        "minimum_orbit_intersection": ".325609",
        "jupiter_tisserand_invariant": "4.285",
        "epoch_osculation": "2459000.5",
        "eccentricity": ".1821833237968823",
        "semi_major_axis": "1.557549621414062",
        "inclination": "28.61392045220173",
        "ascending_node_longitude": "184.2740843193728",
        "orbital_period": "710.0047664214106",
        "perihelion_distance": "1.273790054406273",
        "perihelion_argument": "132.5228494305729",
        "aphelion_distance": "1.841309188421852",
        "perihelion_time": "2459316.449270941767",
        "mean_anomaly": "199.8014451194165",
        "mean_motion": ".5070388496326353",
        "equinox": "J2000",
        "orbit_class": {
            "orbit_class_type": "AMO",
            "orbit_class_description": "Near-Earth asteroid orbits similar to that of 1221 Amor",
            "orbit_class_range": "1.017 AU < q (perihelion) < 1.3 AU"
        }
    },
    "is_sentry_object": false
}